$$SOE
2461295.500000000, A.D. 2026-Sep-12 00:00:00.0000, 1.579367971412277E+08, 2.795614314277271E+08, 1.482996628883070E+07,
2461302.500000000, A.D. 2026-Sep-19 00:00:00.0000, 1.470060024900302E+08, 2.863048864712502E+08, 1.648633519116490E+07,
2461309.500000000, A.D. 2026-Sep-26 00:00:00.0000, 1.358619487337659E+08, 2.926331256584758E+08, 1.811879643202592E+07,
2461316.500000000, A.D. 2026-Oct-03 00:00:00.0000, 1.245223973716736E+08, 2.985404250200424E+08, 1.972519642508964E+07,
2461323.500000000, A.D. 2026-Oct-10 00:00:00.0000, 1.130051887249236E+08, 3.040219605112613E+08, 2.130346718104470E+07,
2461330.500000000, A.D. 2026-Oct-17 00:00:00.0000, 1.013281875418733E+08, 3.090737954006932E+08, 2.285162979457988E+07,
2461337.500000000, A.D. 2026-Oct-24 00:00:00.0000, 8.950923088272256E+07, 3.136928639057131E+08, 2.436779734581460E+07,
2461344.500000000, A.D. 2026-Oct-31 00:00:00.0000, 7.756607863616312E+07, 3.178769513372454E+08, 2.585017721345757E+07,
2461351.500000000, A.D. 2026-Nov-07 00:00:00.0000, 6.551636721724578E+07, 3.216246711714135E+08, 2.729707279208687E+07,
2461358.500000000, A.D. 2026-Nov-14 00:00:00.0000, 5.337756681674416E+07, 3.249354402894318E+08, 2.870688469006041E+07,
2461365.500000000, A.D. 2026-Nov-21 00:00:00.0000, 4.116694052428984E+07, 3.278094534187012E+08, 3.007811165521722E+07,
2461372.500000000, A.D. 2026-Nov-28 00:00:00.0000, 2.890150441655109E+07, 3.302476540975574E+08, 3.140935110047519E+07,
2461379.500000000, A.D. 2026-Dec-05 00:00:00.0000, 1.659799227007703E+07, 3.322517018374817E+08, 3.269929887369666E+07,
2461386.500000000, A.D. 2026-Dec-12 00:00:00.0000, 4.272825075292935E+06, 3.338239389220513E+08, 3.394674854281428E+07,
2461393.500000000, A.D. 2026-Dec-19 00:00:00.0000, -8.057916558579088E+06, 3.349673571557673E+08, 3.515059040258837E+07,
2461400.500000000, A.D. 2026-Dec-26 00:00:00.0000, -2.037851730499128E+07, 3.356855639904777E+08, 3.630981018035024E+07,
2461407.500000000, A.D. 2027-Jan-02 00:00:00.0000, -3.267364912769012E+07, 3.359827481199977E+08, 3.742348743574539E+07,
2461414.500000000, A.D. 2027-Jan-09 00:00:00.0000, -4.492839037243015E+07, 3.358636448214562E+08, 3.849079368025146E+07,
2461421.500000000, A.D. 2027-Jan-16 00:00:00.0000, -5.712824202218048E+07, 3.353335012858511E+08, 3.951099024774493E+07,
2461428.500000000, A.D. 2027-Jan-23 00:00:00.0000, -6.925914120140588E+07, 3.343980421091690E+08, 4.048342594191118E+07,
2461435.500000000, A.D. 2027-Jan-30 00:00:00.0000, -8.130747188523117E+07, 3.330634350854685E+08, 4.140753447194123E+07,
2461442.500000000, A.D. 2027-Feb-06 00:00:00.0000, -9.326007254064241E+07, 3.313362578091560E+08, 4.228283169660287E+07,
2461449.500000000, A.D. 2027-Feb-13 00:00:00.0000, -1.051042413180234E+08, 3.292234664532821E+08, 4.310891284816137E+07,
2461456.500000000, A.D. 2027-Feb-20 00:00:00.0000, -1.168277413144623E+08, 3.267323660598861E+08, 4.388544991536772E+07,
2461463.500000000, A.D. 2027-Feb-27 00:00:00.0000, -1.284188046682473E+08, 3.238705792242785E+08, 4.461218881796955E+07,
2461470.500000000, A.D. 2027-Mar-06 00:00:00.0000, -1.398661326319171E+08, 3.206460151723661E+08, 4.528894627508852E+07,
2461477.500000000, A.D. 2027-Mar-13 00:00:00.0000, -1.511588933870152E+08, 3.170668413535016E+08, 4.591560670330371E+07,
2461484.500000000, A.D. 2027-Mar-20 00:00:00.0000, -1.622867188820498E+08, 3.131414567665973E+08, 4.649211919820166E+07,
2461491.500000000, A.D. 2027-Mar-27 00:00:00.0000, -1.732397006404855E+08, 3.088784665035359E+08, 4.701849455216695E+07,
2461498.500000000, A.D. 2027-Apr-03 00:00:00.0000, -1.840083844805812E+08, 3.042866574830087E+08, 4.749480230058751E+07,
2461505.500000000, A.D. 2027-Apr-10 00:00:00.0000, -1.945837642240697E+08, 2.993749754078736E+08, 4.792116780582464E+07,
2461512.500000000, A.D. 2027-Apr-17 00:00:00.0000, -2.049572745025091E+08, 2.941525029314499E+08, 4.829776938718539E+07,
2461519.500000000, A.D. 2027-Apr-24 00:00:00.0000, -2.151207827053069E+08, 2.886284389609979E+08, 4.862483549437627E+07,
2461526.500000000, A.D. 2027-May-01 00:00:00.0000, -2.250665798851205E+08, 2.828120791082658E+08, 4.890264190752825E+07,
2461533.500000000, A.D. 2027-May-08 00:00:00.0000, -2.347873704212322E+08, 2.767127980103810E+08, 4.913150900370097E+07,
2461540.500000000, A.D. 2027-May-15 00:00:00.0000, -2.442762620398960E+08, 2.703400344451548E+08, 4.931179931109633E+07,
2461547.500000000, A.D. 2027-May-22 00:00:00.0000, -2.535267578485432E+08, 2.637032766183400E+08, 4.944391528765601E+07,
2461554.500000000, A.D. 2027-May-29 00:00:00.0000, -2.625327471065522E+08, 2.568120461144554E+08, 4.952829689896813E+07,
2461561.500000000, A.D. 2027-Jun-05 00:00:00.0000, -2.712884939241723E+08, 2.496758835944811E+08, 4.956541917207986E+07,
2461568.500000000, A.D. 2027-Jun-12 00:00:00.0000, -2.797886259725686E+08, 2.423043366297783E+08, 4.955578994707309E+07,
2461575.500000000, A.D. 2027-Jun-19 00:00:00.0000, -2.880281235997028E+08, 2.347069486949320E+08, 4.949994778168471E+07,
2461582.500000000, A.D. 2027-Jun-26 00:00:00.0000, -2.960023091279746E+08, 2.268932490112659E+08, 4.939845996211223E+07,
2461589.500000000, A.D. 2027-Jul-03 00:00:00.0000, -3.037068362519431E+08, 2.188727432010894E+08, 4.925192060818575E+07,
2461596.500000000, A.D. 2027-Jul-10 00:00:00.0000, -3.111376795447838E+08, 2.106549047135480E+08, 4.906094886950481E+07,
2461603.500000000, A.D. 2027-Jul-17 00:00:00.0000, -3.182911240776100E+08, 2.022491669360176E+08, 4.882618720495574E+07,
2461610.500000000, A.D. 2027-Jul-24 00:00:00.0000, -3.251637550308936E+08, 1.936649158819270E+08, 4.854829972472964E+07,
2461617.500000000, A.D. 2027-Jul-31 00:00:00.0000, -3.317524469175744E+08, 1.849114836453111E+08, 4.822797057464039E+07,
2461624.500000000, A.D. 2027-Aug-07 00:00:00.0000, -3.380543526454301E+08, 1.759981437298312E+08, 4.786590247323124E+07,
2461631.500000000, A.D. 2027-Aug-14 00:00:00.0000, -3.440668947440067E+08, 1.669341079574215E+08, 4.746281558979201E+07,
2461638.500000000, A.D. 2027-Aug-21 00:00:00.0000, -3.497877581567180E+08, 1.577285215550666E+08, 4.701944642903597E+07,
2461645.500000000, A.D. 2027-Aug-28 00:00:00.0000, -3.552148811742174E+08, 1.483904575839047E+08, 4.653654650200206E+07,
2461652.500000000, A.D. 2027-Sep-04 00:00:00.0000, -3.603464456953983E+08, 1.389289131675037E+08, 4.601488109132002E+07,
2461659.500000000, A.D. 2027-Sep-11 00:00:00.0000, -3.651808682238472E+08, 1.293528068151746E+08, 4.545522818149611E+07,
2461666.500000000, A.D. 2027-Sep-18 00:00:00.0000, -3.697167914799379E+08, 1.196709761539264E+08, 4.485837748667875E+07,
2461673.500000000, A.D. 2027-Sep-25 00:00:00.0000, -3.739530764101670E+08, 1.098921759595447E+08, 4.422512954652521E+07,
2461680.500000000, A.D. 2027-Oct-02 00:00:00.0000, -3.778887945256246E+08, 1.000250764856320E+08, 4.355629488317146E+07,
2461687.500000000, A.D. 2027-Oct-09 00:00:00.0000, -3.815232205501075E+08, 9.007826205908906E+07, 4.285269321400639E+07,
2461694.500000000, A.D. 2027-Oct-16 00:00:00.0000, -3.848558253144702E+08, 8.006022986060722E+07, 4.211515270676821E+07,
2461701.500000000, A.D. 2027-Oct-23 00:00:00.0000, -3.878862686351418E+08, 6.997938885822061E+07, 4.134450924940068E+07,
2461708.500000000, A.D. 2027-Oct-30 00:00:00.0000, -3.906143917986298E+08, 5.984405947858134E+07, 4.054160574702778E+07,
2461715.500000000, A.D. 2027-Nov-06 00:00:00.0000, -3.930402108116139E+08, 4.966247511893691E+07, 3.970729164196680E+07,
2461722.500000000, A.D. 2027-Nov-13 00:00:00.0000, -3.951639124001454E+08, 3.944278339966489E+07, 3.884242266661313E+07,
2461729.500000000, A.D. 2027-Nov-20 00:00:00.0000, -3.969858498547480E+08, 2.919304495126657E+07, 3.794786038227844E+07,
2461736.500000000, A.D. 2027-Nov-27 00:00:00.0000, -3.985065370970427E+08, 1.892123268210213E+07, 3.702447159550332E+07,
2461743.500000000, A.D. 2027-Dec-04 00:00:00.0000, -3.997266429829368E+08, 8.635232420291070E+06, 3.607312790944650E+07,
2461750.500000000, A.D. 2027-Dec-11 00:00:00.0000, -4.006469863887618E+08, -1.657156054244855E+06, 3.509470537985479E+07,
2461757.500000000, A.D. 2027-Dec-18 00:00:00.0000, -4.012685318022310E+08, -1.194821794335514E+07, 3.409008422086288E+07,
2461764.500000000, A.D. 2027-Dec-25 00:00:00.0000, -4.015923852611463E+08, -2.223032234692478E+07, 3.306014854467460E+07,
2461771.500000000, A.D. 2028-Jan-01 00:00:00.0000, -4.016197905923098E+08, -3.249592116175463E+07, 3.200578613065635E+07,
$$EOE